CCSDS_OMM_VERS = 2.0
CREATION_DATE  = 
ORIGINATOR     = 

OBJECT_NAME    = DISKSAT A
OBJECT_ID      = 2025-305D
CENTER_NAME    = EARTH
REF_FRAME      = TEME
TIME_SYSTEM    = UTC
MEAN_ELEMENT_THEORY = SGP/SGP4

EPOCH          = 2026-01-13T11:04:02.637696
MEAN_MOTION    = 15.06249334
ECCENTRICITY   = .0001862
INCLINATION    = 45.0016
RA_OF_ASC_NODE = 182.9257
ARG_OF_PERICENTER = 42.8641
MEAN_ANOMALY   = 317.2379

EPHEMERIS_TYPE = 0
CLASSIFICATION_TYPE = U
NORAD_CAT_ID   = 67222
ELEMENT_SET_NO = 999
REV_AT_EPOCH   = 395
BSTAR          = .59449E-3
MEAN_MOTION_DOT = .8632E-4
MEAN_MOTION_DDOT = 0

CCSDS_OMM_VERS = 2.0
CREATION_DATE  = 
ORIGINATOR     = 

OBJECT_NAME    = ELECTRON KICK STAGE R/B
OBJECT_ID      = 2025-305E
CENTER_NAME    = EARTH
REF_FRAME      = TEME
TIME_SYSTEM    = UTC
MEAN_ELEMENT_THEORY = SGP/SGP4

EPOCH          = 2026-01-13T12:59:54.504384
MEAN_MOTION    = 15.53717535
ECCENTRICITY   = .01627313
INCLINATION    = 44.9828
RA_OF_ASC_NODE = 172.5945
ARG_OF_PERICENTER = 292.1324
MEAN_ANOMALY   = 66.2366

EPHEMERIS_TYPE = 0
CLASSIFICATION_TYPE = U
NORAD_CAT_ID   = 67223
ELEMENT_SET_NO = 999
REV_AT_EPOCH   = 409
BSTAR          = .70699385E-3
MEAN_MOTION_DOT = .81727E-3
MEAN_MOTION_DDOT = .10248226E-4

CCSDS_OMM_VERS = 2.0
CREATION_DATE  = 
ORIGINATOR     = 

OBJECT_NAME    = TJS-23
OBJECT_ID      = 2025-306A
CENTER_NAME    = EARTH
REF_FRAME      = TEME
TIME_SYSTEM    = UTC
MEAN_ELEMENT_THEORY = SGP/SGP4

EPOCH          = 2026-01-13T00:41:50.863488
MEAN_MOTION    = 1.00269729
ECCENTRICITY   = .00004
INCLINATION    = 5.9407
RA_OF_ASC_NODE = 298.2889
ARG_OF_PERICENTER = 55.3711
MEAN_ANOMALY   = 304.8164

EPHEMERIS_TYPE = 0
CLASSIFICATION_TYPE = U
NORAD_CAT_ID   = 67226
ELEMENT_SET_NO = 999
REV_AT_EPOCH   = 33
BSTAR          = 0
MEAN_MOTION_DOT = .42E-6
MEAN_MOTION_DDOT = 0

CCSDS_OMM_VERS = 2.0
CREATION_DATE  = 
ORIGINATOR     = 

OBJECT_NAME    = CZ-5 R/B
OBJECT_ID      = 2025-306B
CENTER_NAME    = EARTH
REF_FRAME      = TEME
TIME_SYSTEM    = UTC
MEAN_ELEMENT_THEORY = SGP/SGP4

EPOCH          = 2026-01-13T02:39:57.819168
MEAN_MOTION    = 1.92516400
ECCENTRICITY   = .7577945
INCLINATION    = 16.2781
RA_OF_ASC_NODE = 291.2136
ARG_OF_PERICENTER = 193.4722
MEAN_ANOMALY   = 119.8226

EPHEMERIS_TYPE = 0
CLASSIFICATION_TYPE = U
NORAD_CAT_ID   = 67227
ELEMENT_SET_NO = 999
REV_AT_EPOCH   = 47
BSTAR          = .21721E-2
MEAN_MOTION_DOT = .7809E-4
MEAN_MOTION_DDOT = 0

CCSDS_OMM_VERS = 2.0
CREATION_DATE  = 
ORIGINATOR     = 

OBJECT_NAME    = QPS-SAR-15
OBJECT_ID      = 2025-307A
CENTER_NAME    = EARTH
REF_FRAME      = TEME
TIME_SYSTEM    = UTC
MEAN_ELEMENT_THEORY = SGP/SGP4

EPOCH          = 2026-01-13T07:31:20.555904
MEAN_MOTION    = 14.97358181
ECCENTRICITY   = .0007856
INCLINATION    = 42.0082
RA_OF_ASC_NODE = 357.4281
ARG_OF_PERICENTER = 56.6912
MEAN_ANOMALY   = 303.4664

EPHEMERIS_TYPE = 0
CLASSIFICATION_TYPE = U
NORAD_CAT_ID   = 67228
ELEMENT_SET_NO = 999
REV_AT_EPOCH   = 345
BSTAR          = .36578E-3
MEAN_MOTION_DOT = .4142E-4
MEAN_MOTION_DDOT = 0

CCSDS_OMM_VERS = 2.0
CREATION_DATE  = 
ORIGINATOR     = 

OBJECT_NAME    = ELECTRON R/B
OBJECT_ID      = 2025-307B
CENTER_NAME    = EARTH
REF_FRAME      = TEME
TIME_SYSTEM    = UTC
MEAN_ELEMENT_THEORY = SGP/SGP4

EPOCH          = 2026-01-13T07:33:33.064128
MEAN_MOTION    = 15.84544805
ECCENTRICITY   = .0146401
INCLINATION    = 41.9925
RA_OF_ASC_NODE = 343.2706
ARG_OF_PERICENTER = 45.6637
MEAN_ANOMALY   = 315.6112

EPHEMERIS_TYPE = 0
CLASSIFICATION_TYPE = U
NORAD_CAT_ID   = 67229
ELEMENT_SET_NO = 999
REV_AT_EPOCH   = 361
BSTAR          = .17851E-2
MEAN_MOTION_DOT = .1025077E-1
MEAN_MOTION_DDOT = .41619E-3

CCSDS_OMM_VERS = 2.0
CREATION_DATE  = 
ORIGINATOR     = 

OBJECT_NAME    = ELECTRON KICK STAGE R/B
OBJECT_ID      = 2025-307C
CENTER_NAME    = EARTH
REF_FRAME      = TEME
TIME_SYSTEM    = UTC
MEAN_ELEMENT_THEORY = SGP/SGP4

EPOCH          = 2026-01-13T06:08:06.108864
MEAN_MOTION    = 16.09080601
ECCENTRICITY   = .00849435
INCLINATION    = 41.9990
RA_OF_ASC_NODE = 341.9265
ARG_OF_PERICENTER = 80.3182
MEAN_ANOMALY   = 280.7266

EPHEMERIS_TYPE = 0
CLASSIFICATION_TYPE = U
NORAD_CAT_ID   = 67230
ELEMENT_SET_NO = 999
REV_AT_EPOCH   = 202
BSTAR          = .17007822E-2
MEAN_MOTION_DOT = .2783996E-1
MEAN_MOTION_DDOT = .8137402E-5

CCSDS_OMM_VERS = 2.0
CREATION_DATE  = 
ORIGINATOR     = 

OBJECT_NAME    = SPACEMOBILE-006
OBJECT_ID      = 2025-309A
CENTER_NAME    = EARTH
REF_FRAME      = TEME
TIME_SYSTEM    = UTC
MEAN_ELEMENT_THEORY = SGP/SGP4

EPOCH          = 2026-01-13T08:01:38.956224
MEAN_MOTION    = 15.17738252
ECCENTRICITY   = .00118865
INCLINATION    = 52.9991
RA_OF_ASC_NODE = 320.4562
ARG_OF_PERICENTER = 24.9692
MEAN_ANOMALY   = 335.1874

EPHEMERIS_TYPE = 0
CLASSIFICATION_TYPE = U
NORAD_CAT_ID   = 67232
ELEMENT_SET_NO = 999
REV_AT_EPOCH   = 307
BSTAR          = .26818597E-4
MEAN_MOTION_DOT = .228E-5
MEAN_MOTION_DDOT = 0

CCSDS_OMM_VERS = 2.0
CREATION_DATE  = 
ORIGINATOR     = 

OBJECT_NAME    = LVM3 R/B
OBJECT_ID      = 2025-309B
CENTER_NAME    = EARTH
REF_FRAME      = TEME
TIME_SYSTEM    = UTC
MEAN_ELEMENT_THEORY = SGP/SGP4

EPOCH          = 2026-01-13T15:20:58.968960
MEAN_MOTION    = 15.19662141
ECCENTRICITY   = .00116338
INCLINATION    = 52.9278
RA_OF_ASC_NODE = 318.5727
ARG_OF_PERICENTER = 50.4730
MEAN_ANOMALY   = 309.7289

EPHEMERIS_TYPE = 0
CLASSIFICATION_TYPE = U
NORAD_CAT_ID   = 67233
ELEMENT_SET_NO = 999
REV_AT_EPOCH   = 312
BSTAR          = .26624407E-3
MEAN_MOTION_DOT = .5437E-4
MEAN_MOTION_DDOT = 0

CCSDS_OMM_VERS = 2.0
CREATION_DATE  = 
ORIGINATOR     = 

OBJECT_NAME    = 2025-310A
OBJECT_ID      = 2025-310A
CENTER_NAME    = EARTH
REF_FRAME      = TEME
TIME_SYSTEM    = UTC
MEAN_ELEMENT_THEORY = SGP/SGP4

EPOCH          = 2026-01-13T15:18:38.923200
MEAN_MOTION    = 14.75705656
ECCENTRICITY   = .00018757
INCLINATION    = 97.9662
RA_OF_ASC_NODE = 23.1664
ARG_OF_PERICENTER = 182.9096
MEAN_ANOMALY   = 177.2103

EPHEMERIS_TYPE = 0
CLASSIFICATION_TYPE = U
NORAD_CAT_ID   = 67234
ELEMENT_SET_NO = 999
REV_AT_EPOCH   = 283
BSTAR          = .11338687E-4
MEAN_MOTION_DOT = .27E-6
MEAN_MOTION_DDOT = 0

CCSDS_OMM_VERS = 2.0
CREATION_DATE  = 
ORIGINATOR     = 

OBJECT_NAME    = SL-4 R/B
OBJECT_ID      = 2025-310B
CENTER_NAME    = EARTH
REF_FRAME      = TEME
TIME_SYSTEM    = UTC
MEAN_ELEMENT_THEORY = SGP/SGP4

EPOCH          = 2026-01-13T12:41:31.572960
MEAN_MOTION    = 15.58601207
ECCENTRICITY   = .02692124
INCLINATION    = 97.9611
RA_OF_ASC_NODE = 25.1455
ARG_OF_PERICENTER = 8.1947
MEAN_ANOMALY   = 352.3572

EPHEMERIS_TYPE = 0
CLASSIFICATION_TYPE = U
NORAD_CAT_ID   = 67235
ELEMENT_SET_NO = 999
REV_AT_EPOCH   = 294
BSTAR          = .59113359E-3
MEAN_MOTION_DOT = .292788E-2
MEAN_MOTION_DDOT = .2399346E-5

CCSDS_OMM_VERS = 2.0
CREATION_DATE  = 
ORIGINATOR     = 

OBJECT_NAME    = HULIANWANG DIGUI-128
OBJECT_ID      = 2025-311A
CENTER_NAME    = EARTH
REF_FRAME      = TEME
TIME_SYSTEM    = UTC
MEAN_ELEMENT_THEORY = SGP/SGP4

EPOCH          = 2026-01-13T14:55:15.640320
MEAN_MOTION    = 13.90210289
ECCENTRICITY   = .00065577
INCLINATION    = 50.0103
RA_OF_ASC_NODE = 321.4456
ARG_OF_PERICENTER = 339.5710
MEAN_ANOMALY   = 20.4925

EPHEMERIS_TYPE = 0
CLASSIFICATION_TYPE = U
NORAD_CAT_ID   = 67236
ELEMENT_SET_NO = 999
REV_AT_EPOCH   = 260
BSTAR          = .9006371E-4
MEAN_MOTION_DOT = -.34E-6
MEAN_MOTION_DDOT = 0

