DISKSAT A               
1 67222U 25305D   26013.46114164  .00008632  00000+0  59449-3 0  9995
2 67222  45.0016 182.9257 0001862  42.8641 317.2379 15.06249334  3959
ELECTRON KICK STAGE R/B 
1 67223U 25305E   26013.54160306  .00081727  10248-4  70699-3 0  9990
2 67223  44.9828 172.5945 0162731 292.1324  66.2366 15.53717535  4097
TJS-23                  
1 67226U 25306A   26013.02906092  .00000042  00000+0  00000+0 0  9993
2 67226   5.9407 298.2889 0000400  55.3711 304.8164  1.00269729   330
CZ-5 R/B                
1 67227U 25306B   26013.11108587  .00007809  00000+0  21721-2 0  9991
2 67227  16.2781 291.2136 7577945 193.4722 119.8226  1.92516400   475
QPS-SAR-15              
1 67228U 25307A   26013.31343236  .00004142  00000+0  36578-3 0  9991
2 67228  42.0082 357.4281 0007856  56.6912 303.4664 14.97358181  3453
ELECTRON R/B            
1 67229U 25307B   26013.31496602  .01025077  41619-3  17851-2 0  9996
2 67229  41.9925 343.2706 0146401  45.6637 315.6112 15.84544805  3613
ELECTRON KICK STAGE R/B 
1 67230U 25307C   26013.25562626  .02783996  81374-5  17008-2 0  9991
2 67230  41.9990 341.9265 0084943  80.3182 280.7266 16.09080601  2028
SPACEMOBILE-006         
1 67232U 25309A   26013.33447866  .00000228  00000+0  26819-4 0  9993
2 67232  52.9991 320.4562 0011886  24.9692 335.1874 15.17738252  3077
LVM3 R/B                
1 67233U 25309B   26013.63957140  .00005437  00000+0  26624-3 0  9998
2 67233  52.9278 318.5727 0011633  50.4730 309.7289 15.19662141  3122
2025-310A               
1 67234U 25310A   26013.63795050  .00000027  00000+0  11339-4 0  9999
2 67234  97.9662  23.1664 0001875 182.9096 177.2103 14.75705656  2831
SL-4 R/B                
1 67235U 25310B   26013.52883765  .00292788  23993-5  59113-3 0  9999
2 67235  97.9611  25.1455 0269212   8.1947 352.3572 15.58601207  2948
HULIANWANG DIGUI-128    
1 67236U 25311A   26013.62170880 -.00000034  00000+0  90064-4 0  9990
2 67236  50.0103 321.4456 0006557 339.5710  20.4925 13.90210289  2606
